NORAD_CAT_ID,OBJECT_NAME,OBJECT_TYPE,EPOCH,MEAN_MOTION,ECCENTRICITY,INCLINATION,RA_OF_ASC_NODE,ARG_OF_PERICENTER,MEAN_ANOMALY,BSTAR,MEAN_MOTION_DOT,MEAN_MOTION_DDOT,TLE_LINE0,TLE_LINE1,TLE_LINE2,SEMIMAJOR_AXIS,PERIOD,APOGEE,PERIGEE,DECAYED
53712.0,STARLINK-4683,PAYLOAD,2022-11-18 14:00:01,15.26330431,0.0001366,53.2166,267.5978,67.5045,95.3952,-0.052746,-0.01270268,0.0,0 STARLINK-4683,1 53712U 22107N   22322.58334491 -.01270268  00000-0 -52746-1 0  9991,2 53712  53.2166 267.5978 0001366  67.5045  95.3952 15.26330431  1305,6864.93,94.344,487.733,485.858,0.0
53712.0,STARLINK-4683,PAYLOAD,2022-11-18 22:00:00,15.25474182,0.0001336,53.2165,266.0613,81.5895,113.3425,-0.054771,-0.01283931,0.0,0 STARLINK-4683,1 53712U 22107N   22322.91667824 -.01283931  00000-0 -54771-1 0  9998,2 53712  53.2165 266.0613 0001336  81.5895 113.3425 15.25474182 11858,6867.499,94.397,490.281,488.446,0.0
53712.0,STARLINK-4683,PAYLOAD,2022-11-19 14:00:01,15.23723478,0.0001288,53.2166,262.9959,79.4249,176.4631,-0.056718,-0.01263151,0.0,0 STARLINK-4683,1 53712U 22107N   22323.58334491 -.01263151  00000-0 -56718-1 0  9998,2 53712  53.2166 262.9959 0001288  79.4249 176.4631 15.23723478  1303,6872.7580000000025,94.505,495.508,493.73800000000006,0.0
53712.0,STARLINK-4683,PAYLOAD,2022-11-19 22:00:00,15.228840900000002,0.0001196,53.2163,261.4653,82.5844,202.1999,-0.060095,-0.01301569,0.0,0 STARLINK-4683,1 53712U 22107N   22323.91667824 -.01301569  00000-0 -60095-1 0  9993,2 53712  53.2163 261.4653 0001196  82.5844 202.1999 15.22884090  1300,6875.283,94.557,497.971,496.326,0.0
53712.0,STARLINK-4683,PAYLOAD,2022-11-20 14:00:01,15.21112493,0.0001093,53.2165,258.4119,78.6316,260.8628,-0.060912,-0.01255846,0.0,0 STARLINK-4683,1 53712U 22107N   22324.58334491 -.01255846  00000-0 -60912-1 0  9992,2 53712  53.2165 258.4119 0001093  78.6316 260.8628 15.21112493 12112,6880.621,94.668,503.23800000000006,501.734,0.0
53712.0,STARLINK-4683,PAYLOAD,2022-11-20 22:00:00,15.20219979,0.0001175,53.2177,256.8891,78.7236,286.5631,-0.060685,-0.01221758,0.0,0 STARLINK-4683,1 53712U 22107N   22324.91667824 -.01221758  00000-0 -60685-1 0  9990,2 53712  53.2177 256.8891 0001175  78.7236 286.5631 15.20219979  1301,6883.314,94.723,505.987,504.37,0.0
53712.0,STARLINK-4683,PAYLOAD,2022-11-21 14:00:01,15.18484897,0.0001186,53.217,253.8467,73.0008,340.7192,-0.063942,-0.01223571,0.0,0 STARLINK-4683,1 53712U 22107N   22325.58334491 -.01223571  00000-0 -63942-1 0  9999,2 53712  53.2170 253.8467 0001186  73.0008 340.7192 15.18484897  1302,6888.556,94.831,511.23800000000006,509.604,0.0
53712.0,STARLINK-4683,PAYLOAD,2022-11-21 22:00:00,15.17693202,0.0001234,53.2164,252.3285,83.1692,353.1649,-0.071474,-0.01326661,0.0,0 STARLINK-4683,1 53712U 22107N   22325.91667824 -.01326661  00000-0 -71474-1 0  9998,2 53712  53.2164 252.3285 0001234  83.1692 353.1649 15.17693202  1308,6890.951,94.881,513.6669999999998,511.966,0.0
53712.0,STARLINK-4683,PAYLOAD,2022-11-22 08:00:01,15.16553816,0.0001434,53.216,250.4355,79.811,113.396,-0.06923,-0.01250456,0.0,0 STARLINK-4683,1 53712U 22107N   22326.33334491 -.01250456  00000-0 -69230-1 0  9991,2 53712  53.2160 250.4355 0001434  79.8110 113.3960 15.16553816 12376,6894.401999999999,94.952,517.256,515.279,0.0
53712.0,STARLINK-4683,PAYLOAD,2022-11-22 14:00:01,15.1589994,0.0001330999999999,53.2167,249.2991,76.7588,41.8416,-0.070451,-0.01248968,0.0,0 STARLINK-4683,1 53712U 22107N   22326.58335648 -.01248968  00000-0 -70451-1 0  9995,2 53712  53.2167 249.2991 0001331  76.7588  41.8416 15.15899940  1308,6896.385,94.993,519.168,517.332,0.0
53712.0,STARLINK-4683,PAYLOAD,2022-11-22 22:00:00,15.15055316,0.0001379,53.2164,247.7874,85.9519,52.0956,-0.0741,-0.01279478,0.0,0 STARLINK-4683,1 53712U 22107N   22326.91667824 -.01279478  00000-0 -74100-1 0  9991,2 53712  53.2164 247.7874 0001379  85.9519  52.0956 15.15055316  1300,6898.948,95.046,521.764,519.861,0.0
53712.0,STARLINK-4683,PAYLOAD,2022-11-23 14:00:01,15.13272145,0.0001385,53.2171,244.7705,80.5723,93.415,-0.073694,-0.01215402,0.0,0 STARLINK-4683,1 53712U 22107N   22327.58334491 -.01215402  00000-0 -73694-1 0  9990,2 53712  53.2171 244.7705 0001385  80.5723  93.4150 15.13272145  1307,6904.366,95.158,527.187,525.275,0.0
53712.0,STARLINK-4683,PAYLOAD,2022-11-23 16:00:00,15.13055967,0.0001329,53.2173,244.3938,88.1463,180.0368,-0.074241,-0.01216838,0.0,0 STARLINK-4683,1 53712U 22107N   22327.66667824 -.01216838  00000-0 -74241-1 0  9991,2 53712  53.2173 244.3938 0001329  88.1463 180.0368 15.13055967 12583,6905.024,95.172,527.806,525.971,0.0
53712.0,STARLINK-4683,PAYLOAD,2022-11-23 22:00:00,15.12441029,0.0001473,53.2165,243.2645,103.1012,87.2612,-0.078802,-0.01264975,0.0,0 STARLINK-4683,1 53712U 22107N   22327.91667824 -.01264975  00000-0 -78802-1 0  9991,2 53712  53.2165 243.2645 0001473 103.1012  87.2612 15.12441029  1300,6906.895,95.21,529.778,527.743,0.0
53712.0,STARLINK-4683,PAYLOAD,2022-11-24 14:00:01,15.10667848,0.0001385,53.2171,240.2595,84.1353,135.9037,-0.079198,-0.01214333,0.0,0 STARLINK-4683,1 53712U 22107N   22328.58334491 -.01214333  00000-0 -79198-1 0  9998,2 53712  53.2171 240.2595 0001385  84.1353 135.9037 15.10667848 12712,6912.299,95.322,535.121,533.207,0.0
53712.0,STARLINK-4683,PAYLOAD,2022-11-24 22:00:00,15.09845899,0.0001366,53.2165,238.76,87.5687,145.7128,-0.085709,-0.01295281,0.0,0 STARLINK-4683,1 53712U 22107N   22328.91667824 -.01295281  00000-0 -85709-1 0  9990,2 53712  53.2165 238.7600 0001366  87.5687 145.7128 15.09845899  1305,6914.807,95.374,537.617,535.7280000000002,0.0
53712.0,STARLINK-4683,PAYLOAD,2022-11-25 08:00:01,15.08721776,0.000112,53.2164,236.8893,73.987,264.4272,-0.084615,-0.01228037,0.0,0 STARLINK-4683,1 53712U 22107N   22329.33334491 -.01228037  00000-0 -84615-1 0  9998,2 53712  53.2164 236.8893 0001120  73.9870 264.4272 15.08721776 12833,6918.2419999999975,95.445,540.882,539.332,0.0
53712.0,STARLINK-4683,PAYLOAD,2022-11-25 14:00:01,15.07963048,0.0001185,53.2163,235.7664,77.2228,179.4841,-0.058133,-0.00840987,0.0,0 STARLINK-4683,1 53712U 22107N   22329.58334491 -.00840987  00000-0 -58133-1 0  9994,2 53712  53.2163 235.7664 0001185  77.2228 179.4841 15.07963048 12871,6920.562,95.493,543.247,541.607,0.0
53712.0,STARLINK-4683,PAYLOAD,2022-11-25 22:00:00,15.07153399,0.0001729,53.2133,234.2708,83.5422,183.2726,0.0056507,0.0008667,0.0,0 STARLINK-4683,1 53712U 22107N   22329.91667824  .00086670  00000-0  56507-2 0  9993,2 53712  53.2133 234.2708 0001729  83.5422 183.2726 15.07153399 12922,6923.04,95.544,546.102,543.7080000000002,0.0
53712.0,STARLINK-4683,PAYLOAD,2022-11-26 06:00:00,15.07175668,0.0001807,53.213,232.7766,78.9805,197.4459,0.0050356,0.00077148,0.0,0 STARLINK-4683,1 53712U 22107N   22330.25001157  .00077148  00000-0  50356-2 0  9999,2 53712  53.2130 232.7766 0001807  78.9805 197.4459 15.07175668 12974,6922.972,95.543,546.0880000000002,543.586,0.0
53712.0,STARLINK-4683,PAYLOAD,2022-11-26 14:00:01,15.07209019,0.0001716,53.2141,231.2821,86.3438,199.7151,0.0033736999999999,0.00051452,0.0,0 STARLINK-4683,1 53712U 22107N   22330.58334491  .00051452  00000-0  33737-2 0  9999,2 53712  53.2141 231.2821 0001716  86.3438 199.7151 15.07209019  1303,6922.87,95.541,545.923,543.547,0.0
53712.0,STARLINK-4683,PAYLOAD,2022-11-26 22:00:00,15.0736426,0.0001709,53.2169,229.7947,91.8401,203.8612,-0.014753,-0.0021902,0.0,0 STARLINK-4683,1 53712U 22107N   22330.91667824 -.00219020  00000-0 -14753-1 0  9990,2 53712  53.2169 229.7947 0001709  91.8401 203.8612 15.07364260 13073,6922.395,95.531,545.443,543.077,0.0
53712.0,STARLINK-4683,PAYLOAD,2022-11-27 06:00:00,15.07224298,0.000164,53.2145,228.2984,77.4547,227.9134,0.00042143,6.141e-05,0.0,0 STARLINK-4683,1 53712U 22107N   22331.25001157  .00006141  00000-0  42143-3 0  9991,2 53712  53.2145 228.2984 0001640  77.4547 227.9134 15.07224298 13125,6922.823,95.54,545.8240000000002,543.553,0.0
53712.0,STARLINK-4683,PAYLOAD,2022-11-27 14:00:01,15.07198528,0.0001568,53.2147,226.804,86.0228,229.0142,0.0016667,0.00025173,0.0,0 STARLINK-4683,1 53712U 22107N   22331.58334491  .00025173  00000-0  16667-2 0  9994,2 53712  53.2147 226.8040 0001568  86.0228 229.0142 15.07198528  1300,6922.901999999999,95.541,545.8530000000002,543.682,0.0
53712.0,STARLINK-4683,PAYLOAD,2022-11-27 22:00:00,15.07219916,0.0001605,53.2148,225.3125,81.161,243.5051,-0.0012541,-0.0001933,0.0,0 STARLINK-4683,1 53712U 22107N   22331.91667824 -.00019330  00000-0 -12541-2 0  9997,2 53712  53.2148 225.3125 0001605  81.1610 243.5051 15.07219916  1307,6922.837,95.54,545.813,543.591,0.0
53712.0,STARLINK-4683,PAYLOAD,2022-11-28 00:00:00,15.07213292,0.000164,53.2148,224.9397,78.9135,338.1646,-0.00050352,-7.941e-05,0.0,0 STARLINK-4683,1 53712U 22107N   22332.00001157 -.00007941  00000-0 -50352-3 0  9997,2 53712  53.2148 224.9397 0001640  78.9135 338.1646 15.07213292 13235,6922.857,95.541,545.857,543.587,0.0
53712.0,STARLINK-4683,PAYLOAD,2022-11-28 22:00:01,15.07216354,0.0001489,53.2149,220.8344,80.4705,273.1833,-0.0012413,-0.00019134,0.0,0 STARLINK-4683,1 53712U 22107N   22332.91668981 -.00019134  00000-0 -12413-2 0  9993,2 53712  53.2149 220.8344 0001489  80.4705 273.1833 15.07216354  1308,6922.848000000001,95.54,545.743,543.682,0.0
53712.0,STARLINK-4683,PAYLOAD,2022-11-29 06:00:00,15.07232016,0.0001412,53.2146,219.342,76.2259,286.9976,-0.0029098,-0.00044334,0.0,0 STARLINK-4683,1 53712U 22107N   22333.25001157 -.00044334  00000-0 -29098-2 0  9994,2 53712  53.2146 219.3420 0001412  76.2259 286.9976 15.07232016 13425,6922.8,95.539,545.6419999999998,543.687,0.0
53712.0,STARLINK-4683,PAYLOAD,2022-11-29 14:00:01,15.07169144,0.0001321,53.2148,217.8477,87.839,285.1031,0.0035825,0.00054618,0.0,0 STARLINK-4683,1 53712U 22107N   22333.58335648  .00054618  00000-0  35825-2 0  9994,2 53712  53.2148 217.8477 0001321  87.8390 285.1031 15.07169144  1303,6922.9919999999975,95.543,545.7719999999998,543.943,0.0
